CUTE-1 (CO-55)          
1 27844U 03031E   26133.96662765  .00000191  00000+0  10178-3 0  9994
2 27844  98.6747 142.9554 0008324 287.2736  72.7532 14.24313628186803
CUBESAT XI-IV (CO-57)   
1 27848U 03031J   26134.00824506  .00000162  00000+0  90172-4 0  9998
2 27848  98.6778 142.7365 0008424 308.1331  51.9088 14.23601767186510
CUBESAT XI-V            
1 28895U 05043F   26133.40904681  .00000792  00000+0  13289-3 0  9994
2 28895  98.2946 288.3105 0013121 319.7744  40.2490 14.72536322 96630
CUTE-1.7+APD II (CO-65) 
1 32785U 08021C   26134.17133164  .00003313  00000+0  21293-3 0  9997
2 32785  97.8259 114.8957 0010083 136.6900 223.5122 15.09113311980064
CANX-2                  
1 32790U 08021H   26133.46031811  .00001970  00000+0  14187-3 0  9991
2 32790  97.8625 112.5755 0011234 151.8484 208.3351 15.05361840979581
SEEDS II (CO-66)        
1 32791U 08021J   26133.97786064  .00012151  00000+0  40134-3 0  9999
2 32791  97.7520 130.2774 0004981  82.4291 277.7515 15.31540490982056
SWISSCUBE               
1 35932U 09051B   26133.95912275  .00000607  00000+0  12977-3 0  9993
2 35932  98.4058  41.2496 0006123 330.7153  29.3704 14.62412037884159
BEESAT-1                
1 35933U 09051C   26133.54014512  .00000511  00000+0  11264-3 0  9998
2 35933  98.3987  40.5309 0005015 350.4158   9.6946 14.61661113884124
ITUPSAT1                
1 35935U 09051E   26133.98037321  .00000462  00000+0  10562-3 0  9996
2 35935  98.4072  40.2059 0007379 355.8503   4.2634 14.60386348883744
TISAT 1                 
1 36799U 10035E   26133.34624792  .00012278  00000+0  42092-3 0  9994
2 36799  98.0691  76.8483 0003487  52.2159 307.9396 15.30347916862373
AEROCUBE 4.5A           
1 38767U 12048K   26134.16087862  .00134545  00000+0  76572-3 0  9991
2 38767  64.6285 149.5482 0018915 217.0207 142.9643 15.78080268367268
STRAND-1                
1 39090U 13009E   26134.01072044  .00000173  00000+0  72578-4 0  9991
2 39090  98.3916 315.0879 0008128 341.2705  18.8182 14.37142218692157
BRITE-AUSTRIA           
1 39091U 13009F   26133.45170535  .00000103  00000+0  49498-4 0  9991
2 39091  98.3988 313.7488 0009898 350.9654   9.1353 14.36527680692065
NEE-01 PEGASO           
1 39151U 13018B   26133.36122948  .00001488  00000+0  14717-3 0  9995
2 39151  98.1178 276.3748 0011280 279.5915  80.4029 14.93483981705502
POPACS 2                
1 39269U 13055E   26134.14713591  .00010611  00000+0  18231-3 0  9996
2 39269  80.9928 183.1371 0419115 303.3011  52.8710 14.90428361658148
POPACS 3                
1 39270U 13055F   26134.09494346  .00012390  00000+0  29584-3 0  9995
2 39270  81.0005 266.1253 0554882 173.6654 187.1967 14.55271746633593
ZACUBE-1 (TSHEPISOSAT)  
1 39417U 13066B   26134.14345632  .00003059  00000+0  24077-3 0  9993
2 39417  97.8119  96.2956 0041717   7.6658 352.5194 15.00915790675622
WNISAT-1                
1 39423U 13066H   26133.96661904  .00000282  00000+0  60534-4 0  9996
2 39423  97.7159 285.5601 0162607 340.1790  19.3138 14.58018507661742
TRITON-1                
1 39427U 13066M   26134.19082757  .00002198  00000+0  26799-3 0  9991
2 39427  97.8266  44.7720 0090083 346.2935  13.5833 14.81553737669054
GOMX-1                  
1 39430U 13066Q   26134.13719381  .00001142  00000+0  17816-3 0  9997
2 39430  97.6514 336.7475 0128515 186.2163 173.7456 14.69319970664915
CUBEBUG-2 (LO-74)       
1 39440U 13066AA  26134.09776140  .00001580  00000+0  15082-3 0  9998
2 39440  97.8892  82.9446 0058895 139.1526 221.4130 14.93495726671906
NEE-02 KRYSAOR          
1 39441U 13066AB  26134.08220978  .00000970  00000+0  11182-3 0  9990
2 39441  97.8883  73.5477 0066154 180.2148 179.9050 14.86485758671130
FUNCUBE-1 (AO-73)       
1 39444U 13066AE  26134.17754074  .00004932  00000+0  31156-3 0  9997
2 39444  97.8260 104.9295 0035222 322.2091  37.6664 15.09033752674533
UWE-3                   
1 39446U 13066AG  26133.38821264  .00002066  00000+0  18157-3 0  9999
2 39446  97.8680  89.2422 0050799  75.9697 284.7165 14.96721930672376
BRITE-CA1 (TORONTO)     
1 40020U 14033L   26134.13308804  .00000422  00000+0  71132-4 0  9995
2 40020  97.9690 263.6992 0079202  26.9087 333.6195 14.72628605637206
DUCHIFAT-1              
1 40021U 14033M   26134.11597346  .00063959  00000+0  83582-3 0  9990
2 40021  98.0509 188.6734 0006023 183.9716 176.1491 15.58428307650433
NANOSATC-BR1            
1 40024U 14033Q   26134.02009786  .00011466  00000+0  39351-3 0  9990
2 40024  98.0752 163.4085 0001842 319.0154  41.0946 15.30336377648750
QB50P1                  
1 40025U 14033R   26134.00420639  .00005281  00000+0  26550-3 0  9998
2 40025  98.0978 142.7678 0008273 355.2575   4.8577 15.17710042647849
QB50P2                  
1 40032U 14033Y   26133.95146185  .00004160  00000+0  22865-3 0  9990
2 40032  98.0752 128.7150 0005788 298.4534  61.6112 15.14702636647480
PERSEUS-M2              
1 40037U 14033AD  26134.13952692  .00001120  00000+0  10679-3 0  9997
2 40037  97.9937  83.9937 0013232  56.6424 303.6060 14.95398768645695
